NORAD_CAT_ID,OBJECT_NAME,OBJECT_TYPE,EPOCH,MEAN_MOTION,ECCENTRICITY,INCLINATION,RA_OF_ASC_NODE,ARG_OF_PERICENTER,MEAN_ANOMALY,BSTAR,MEAN_MOTION_DOT,MEAN_MOTION_DDOT,TLE_LINE0,TLE_LINE1,TLE_LINE2,SEMIMAJOR_AXIS,PERIOD,APOGEE,PERIGEE,DECAYED
56490.0,STARLINK-5873,PAYLOAD,2023-10-07 14:00:01,15.69860692,0.0003496,70.0004,183.9563,267.7013,137.8589,0.0010824,0.00131654,0.0,0 STARLINK-5873,1 56490U 23064AU  23280.58334491  .00131654  00000-0  10824-2 0  9998,2 56490  70.0004 183.9563 0003496 267.7013 137.8589 15.69860692 23895,6737.433,91.728,361.653,356.942,0.0
56490.0,STARLINK-5873,PAYLOAD,2023-10-07 21:27:11,15.69924533,0.0003161,70.0013,183.0845,269.0583,91.025,2.1967e-05,2.429e-05,0.0,0 STARLINK-5873,1 56490U 23064AU  23280.89388265  .00002429  00000-0  21967-4 0  9999,2 56490  70.0013 183.0845 0003161 269.0583  91.0250 15.69924533 23593,6737.25,91.724,361.245,356.985,0.0
56490.0,STARLINK-5873,PAYLOAD,2023-10-08 02:02:26,15.69942122,0.0003051,70.001,182.5476,264.7227,95.362,8.1494e-05,9.604e-05,0.0,0 STARLINK-5873,1 56490U 23064AU  23281.08502823  .00009604  00000-0  81494-4 0  9992,2 56490  70.0010 182.5476 0003051 264.7227  95.3620 15.69942122 23973,6737.2,91.723,361.12,357.009,0.0
56490.0,STARLINK-5873,PAYLOAD,2023-10-08 05:05:56,15.69928096,0.0003179,70.0009,182.1871,272.3447,87.7385,2.8752e-05,3.246e-05,0.0,0 STARLINK-5873,1 56490U 23064AU  23281.21246354  .00003246  00000-0  28752-4 0  9995,2 56490  70.0009 182.1871 0003179 272.3447  87.7385 15.69928096 23995,6737.24,91.724,361.246,356.963,0.0
56490.0,STARLINK-5873,PAYLOAD,2023-10-08 11:12:57,15.69934405,0.0003862,69.9997,181.4709,271.0505,89.0248,3.9162e-05,4.501e-05,0.0,0 STARLINK-5873,1 56490U 23064AU  23281.46732690  .00004501  00000-0  39162-4 0  9997,2 56490  69.9997 181.4709 0003862 271.0505  89.0248 15.69934405 23680,6737.222,91.724,361.689,356.485,0.0
56490.0,STARLINK-5873,PAYLOAD,2023-10-08 20:23:28,15.69909338,0.0004421,69.9995,180.3959,285.7254,74.3454,-1.9286e-05,-2.531e-05,0.0,0 STARLINK-5873,1 56490U 23064AU  23281.84963378 -.00002531  00000-0 -19286-4 0  9996,2 56490  69.9995 180.3959 0004421 285.7254  74.3454 15.69909338 23748,6737.293,91.725,362.137,356.18,0.0
56490.0,STARLINK-5873,PAYLOAD,2023-10-09 02:30:28,15.69912667,0.000312,70.0004,179.6802,268.6751,91.4087,-1.8062e-05,-2.383e-05,0.0,0 STARLINK-5873,1 56490U 23064AU  23282.10450163 -.00002383  00000-0 -18062-4 0  9995,2 56490  70.0004 179.6802 0003120 268.6751  91.4087 15.69912667 24132,6737.284,91.725,361.251,357.047,0.0
56490.0,STARLINK-5873,PAYLOAD,2023-10-09 10:09:14,15.69924227,0.0003422,70.0009,178.7843,267.3231,92.7573,3.4415e-05,3.927e-05,0.0,0 STARLINK-5873,1 56490U 23064AU  23282.42308209  .00003927  00000-0  34415-4 0  9996,2 56490  70.0009 178.7843 0003422 267.3231  92.7573 15.69924227 23831,6737.251,91.724,361.421,356.81,0.0
56490.0,STARLINK-5873,PAYLOAD,2023-10-09 19:19:45,15.69927927,0.0003611,69.9998,177.7092,264.0799,95.9985,6.455e-05,7.557e-05,0.0,0 STARLINK-5873,1 56490U 23064AU  23282.80538235  .00007557  00000-0  64550-4 0  9998,2 56490  69.9998 177.7092 0003611 264.0799  95.9985 15.69927927 24241,6737.24,91.724,361.538,356.672,0.0
56490.0,STARLINK-5873,PAYLOAD,2023-10-09 20:51:30,15.69919724,0.0003928,69.9998,177.529,272.4171,87.6575,4.2055e-05,4.846e-05,0.0,0 STARLINK-5873,1 56490U 23064AU  23282.86910221  .00004846  00000-0  42055-4 0  9997,2 56490  69.9998 177.5290 0003928 272.4171  87.6575 15.69919724 23908,6737.264,91.724,361.775,356.482,0.0
56490.0,STARLINK-5873,PAYLOAD,2023-10-10 04:30:15,15.6993289,0.0002972,70.0008,176.6326,262.3344,97.7514,7.9425e-05,9.351e-05,0.0,0 STARLINK-5873,1 56490U 23064AU  23283.18768294  .00009351  00000-0  79425-4 0  9991,2 56490  70.0008 176.6326 0002972 262.3344  97.7514 15.69932890 23950,6737.226,91.724,361.093,357.089,0.0
56490.0,STARLINK-5873,PAYLOAD,2023-10-10 18:16:02,15.69926839,0.0002842,70.0017,175.0225,254.8788,105.2094,3.3893e-05,3.865e-05,0.0,0 STARLINK-5873,1 56490U 23064AU  23283.76113562  .00003865  00000-0  33893-4 0  9990,2 56490  70.0017 175.0225 0002842 254.8788 105.2094 15.69926839 24398,6737.243,91.724,361.023,357.194,0.0
56490.0,STARLINK-5873,PAYLOAD,2023-10-10 19:47:47,15.69929847,0.0002768,70.0018,174.8441,252.0727,108.0167,4.4684e-05,5.165e-05,0.0,0 STARLINK-5873,1 56490U 23064AU  23283.82485164  .00005165  00000-0  44684-4 0  9992,2 56490  70.0018 174.8441 0002768 252.0727 108.0167 15.69929847 24053,6737.235,91.724,360.965,357.235,0.0
56490.0,STARLINK-5873,PAYLOAD,2023-10-11 01:54:47,15.69938728,0.0002707,70.0018,174.1274,253.8578,106.232,0.00011741,0.00013936,0.0,0 STARLINK-5873,1 56490U 23064AU  23284.07971712  .00013936  00000-0  11741-3 0  9991,2 56490  70.0018 174.1274 0002707 253.8578 106.2320 15.69938728 24448,6737.209,91.723,360.898,357.251,0.0
56490.0,STARLINK-5873,PAYLOAD,2023-10-11 18:44:03,15.6993258,0.0002441,70.003,172.1585,230.1648,129.9333,3.164e-05,3.595e-05,0.0,0 STARLINK-5873,1 56490U 23064AU  23284.78060003  .00003595  00000-0  31640-4 0  9992,2 56490  70.0030 172.1585 0002441 230.1648 129.9333 15.69932580 24554,6737.227,91.724,360.736,357.447,0.0
56490.0,STARLINK-5873,PAYLOAD,2023-10-12 03:54:34,15.69926079,0.0003282,70.0007,171.0812,267.6326,92.4494,2.8044e-05,3.161e-05,0.0,0 STARLINK-5873,1 56490U 23064AU  23285.16290318  .00003161  00000-0  28044-4 0  9992,2 56490  70.0007 171.0812 0003282 267.6326  92.4494 15.69926079 24616,6737.245,91.724,361.322,356.899,0.0
56490.0,STARLINK-5873,PAYLOAD,2023-10-12 10:01:35,15.69923351,0.00033,70.0004,170.3647,270.4778,89.604,1.7479e-05,1.889e-05,0.0,0 STARLINK-5873,1 56490U 23064AU  23285.41777076  .00001889  00000-0  17479-4 0  9996,2 56490  70.0004 170.3647 0003300 270.4778  89.6040 15.69923351 24306,6737.253,91.724,361.342,356.895,0.0
56490.0,STARLINK-5873,PAYLOAD,2023-10-12 19:12:06,15.69926413,0.0003313,69.9995,169.2898,267.8012,92.2804,9.4267e-06,9.21e-06,0.0,0 STARLINK-5873,1 56490U 23064AU  23285.80007046  .00000921  00000-0  94267-5 0  9999,2 56490  69.9995 169.2898 0003313 267.8012  92.2804 15.69926413 24368,6737.245,91.724,361.342,356.877,0.0
56490.0,STARLINK-5873,PAYLOAD,2023-10-13 02:50:51,15.69929838,0.0002945,69.9995,168.3954,281.0869,78.9995,1.0541e-05,1.055e-05,0.0,0 STARLINK-5873,1 56490U 23064AU  23286.11865357  .00001055  00000-0  10541-4 0  9992,2 56490  69.9995 168.3954 0002945 281.0869  78.9995 15.69929838 24411,6737.235,91.724,361.084,357.116,0.0
56490.0,STARLINK-5873,PAYLOAD,2023-10-13 19:40:07,15.69933106,0.0003365,69.9992,166.4234,266.4848,93.5963,1.8768e-05,2.045e-05,0.0,0 STARLINK-5873,1 56490U 23064AU  23286.81953383  .00002045  00000-0  18768-4 0  9995,2 56490  69.9992 166.4234 0003365 266.4848  93.5963 15.69933106 24870,6737.225,91.724,361.357,356.823,0.0
56490.0,STARLINK-5873,PAYLOAD,2023-10-14 01:47:09,15.6990263,0.0003089,70.0001,165.7083,265.3804,94.7039,-5.3202e-05,-6.599e-05,0.0,0 STARLINK-5873,1 56490U 23064AU  23287.07441262 -.00006599  00000-0 -53202-4 0  9994,2 56490  70.0001 165.7083 0003089 265.3804  94.7039 15.69902630 24911,6737.313,91.725,361.259,357.096,0.0
56490.0,STARLINK-5873,PAYLOAD,2023-10-14 09:25:54,15.69915845,0.000334,69.9991,164.8135,261.144,98.9377,-7.9511e-06,-1.168e-05,0.0,0 STARLINK-5873,1 56490U 23064AU  23287.39299289 -.00001168  00000-0 -79511-5 0  9998,2 56490  69.9991 164.8135 0003340 261.1440  98.9377 15.69915845 24962,6737.275,91.725,361.39,356.89,0.0
56490.0,STARLINK-5873,PAYLOAD,2023-10-14 18:36:25,15.69920997,0.0003487,69.9999,163.7362,261.7011,98.379,8.5192e-06,8.12e-06,0.0,0 STARLINK-5873,1 56490U 23064AU  23287.77529244  .00000812  00000-0  85192-5 0  9992,2 56490  69.9999 163.7362 0003487 261.7011  98.3790 15.69920997 24677,6737.26,91.724,361.474,356.776,0.0
56490.0,STARLINK-5873,PAYLOAD,2023-10-15 00:43:25,15.69941267,0.000329,69.9994,163.0202,258.2997,101.7829,7.4924e-05,8.812e-05,0.0,0 STARLINK-5873,1 56490U 23064AU  23288.03015327  .00008812  00000-0  74924-4 0  9992,2 56490  69.9994 163.0202 0003290 258.2997 101.7829 15.69941267 25063,6737.202,91.723,361.284,356.85,0.0
56490.0,STARLINK-5873,PAYLOAD,2023-10-15 19:04:26,15.69930095,0.0002994,69.9995,160.8706,236.1579,123.9332,4.3887e-05,5.069e-05,0.0,0 STARLINK-5873,1 56490U 23064AU  23288.79475506  .00005069  00000-0  43887-4 0  9999,2 56490  69.9995 160.8706 0002994 236.1579 123.9332 15.69930095 25184,6737.234,91.724,361.116,357.082,0.0
56490.0,STARLINK-5873,PAYLOAD,2023-10-16 01:11:27,15.69923389,0.0003036,69.9986,160.1536,263.6141,96.4709,6.0203e-06,5.11e-06,0.0,0 STARLINK-5873,1 56490U 23064AU  23289.04962535  .00000511  00000-0  60203-5 0  9990,2 56490  69.9986 160.1536 0003036 263.6141  96.4709 15.69923389 25221,6737.253,91.724,361.164,357.073,0.0
56490.0,STARLINK-5873,PAYLOAD,2023-10-16 08:50:13,15.69913739,0.0003053,69.9985,159.2577,267.1948,92.8899,2.5552e-05,2.859e-05,0.0,0 STARLINK-5873,1 56490U 23064AU  23289.36821506  .00002859  00000-0  25552-4 0  9991,2 56490  69.9985 159.2577 0003053 267.1948  92.8899 15.69913739 25270,6737.281,91.725,361.203,357.089,0.0
56490.0,STARLINK-5873,PAYLOAD,2023-10-16 16:28:58,15.69924222,0.0003655,69.9979,158.3622,265.1115,94.9663,1.7272e-05,1.864e-05,0.0,0 STARLINK-5873,1 56490U 23064AU  23289.68679138  .00001864  00000-0  17272-4 0  9993,2 56490  69.9979 158.3622 0003655 265.1115  94.9663 15.69924222 25323,6737.251,91.724,361.578,356.653,0.0
56490.0,STARLINK-5873,PAYLOAD,2023-10-18 00:35:46,15.69926411,0.0003205,69.996,154.5999,262.5374,97.5458,6.7448e-06,5.98e-06,0.0,0 STARLINK-5873,1 56490U 23064AU  23291.02484235  .00000598  00000-0  67448-5 0  9990,2 56490  69.9960 154.5999 0003205 262.5374  97.5458 15.69926411 25533,6737.245,91.724,361.269,356.95,0.0
56490.0,STARLINK-5873,PAYLOAD,2023-10-19 01:03:48,15.69929253,0.0003538,69.9953,151.7335,272.9345,87.1445,1.4376e-05,1.516e-05,0.0,0 STARLINK-5873,1 56490U 23064AU  23292.04430610  .00001516  00000-0  14376-4 0  9993,2 56490  69.9953 151.7335 0003538 272.9345  87.1445 15.69929253 25695,6737.236,91.724,361.485,356.718,0.0
